{
  "type": "FeatureCollection",
  "features": [
    {
      "type": "Feature",
      "properties": {
        "norad_id": 31073,
        "name": "FENGYUN 1C DEB",
        "group": "fengyun-1c-debris",
        "lat": -45.42638396160734,
        "lon": 6.419132682284953,
        "alt_km": 799.8326909643838,
        "timestamp": "2025-12-12T05:47:29.051488+00:00",
        "meta_object_name": "FENGYUN 1C DEB",
        "meta_object_id": "1999-025BFT",
        "meta_epoch": "2025-12-09T09:18:45.997632",
        "meta_mean_motion": 14.24769317,
        "meta_eccentricity": 0.00455685,
        "meta_inclination": 99.2196,
        "meta_ra_of_asc_node": 192.9137,
        "meta_arg_of_pericenter": 295.1818,
        "meta_mean_anomaly": 64.4638,
        "meta_ephemeris_type": 0,
        "meta_classification_type": "U",
        "meta_norad_cat_id": 31073,
        "meta_element_set_no": 999,
        "meta_rev_at_epoch": 97035,
        "meta_bstar": 0.001957229,
        "meta_mean_motion_dot": 4.564e-05,
        "meta_mean_motion_ddot": 0,
        "tle_line1": "1 31073U 99025BFT 25343.38803238  .00004564  00000+0  19572-2 0  9995",
        "tle_line2": "2 31073  99.2196 192.9137 0045568 295.1818  64.4638 14.24769317970355"
      },
      "geometry": {
        "type": "Point",
        "coordinates": [
          6.419132682284953,
          -45.42638396160734
        ]
      }
    },
    {
      "type": "Feature",
      "properties": {
        "norad_id": 31074,
        "name": "FENGYUN 1C DEB",
        "group": "fengyun-1c-debris",
        "lat": 5.36303674124229,
        "lon": 82.08453137356217,
        "alt_km": 849.7214664711391,
        "timestamp": "2025-12-12T05:47:29.051498+00:00",
        "meta_object_name": "FENGYUN 1C DEB",
        "meta_object_id": "1999-025BFU",
        "meta_epoch": "2025-12-11T05:11:16.123776",
        "meta_mean_motion": 14.14217181,
        "meta_eccentricity": 0.00879903,
        "meta_inclination": 98.9586,
        "meta_ra_of_asc_node": 260.2083,
        "meta_arg_of_pericenter": 270.2356,
        "meta_mean_anomaly": 88.8734,
        "meta_ephemeris_type": 0,
        "meta_classification_type": "U",
        "meta_norad_cat_id": 31074,
        "meta_element_set_no": 999,
        "meta_rev_at_epoch": 95558,
        "meta_bstar": 0.0044804793,
        "meta_mean_motion_dot": 8.834e-05,
        "meta_mean_motion_ddot": 0,
        "tle_line1": "1 31074U 99025BFU 25345.21615884  .00008834  00000+0  44805-2 0  9999",
        "tle_line2": "2 31074  98.9586 260.2083 0087990 270.2356  88.8734 14.14217181955581"
      },
      "geometry": {
        "type": "Point",
        "coordinates": [
          82.08453137356217,
          5.36303674124229
        ]
      }
    },
    {
      "type": "Feature",
      "properties": {
        "norad_id": 31078,
        "name": "FENGYUN 1C DEB",
        "group": "fengyun-1c-debris",
        "lat": 46.617424732624244,
        "lon": -123.81398709516802,
        "alt_km": 733.9257587409911,
        "timestamp": "2025-12-12T05:47:29.051508+00:00",
        "meta_object_name": "FENGYUN 1C DEB",
        "meta_object_id": "1999-025BFY",
        "meta_epoch": "2025-12-09T23:42:47.304000",
        "meta_mean_motion": 14.22064781,
        "meta_eccentricity": 0.01169827,
        "meta_inclination": 98.8683,
        "meta_ra_of_asc_node": 44.4114,
        "meta_arg_of_pericenter": 156.7857,
        "meta_mean_anomaly": 327.2169,
        "meta_ephemeris_type": 0,
        "meta_classification_type": "U",
        "meta_norad_cat_id": 31078,
        "meta_element_set_no": 999,
        "meta_rev_at_epoch": 96853,
        "meta_bstar": 0.00082190523,
        "meta_mean_motion_dot": 1.905e-05,
        "meta_mean_motion_ddot": 0,
        "tle_line1": "1 31078U 99025BFY 25343.98804750  .00001905  00000+0  82191-3 0  9990",
        "tle_line2": "2 31078  98.8683  44.4114 0116982 156.7857 327.2169 14.22064781968533"
      },
      "geometry": {
        "type": "Point",
        "coordinates": [
          -123.81398709516802,
          46.617424732624244
        ]
      }
    },
    {
      "type": "Feature",
      "properties": {
        "norad_id": 31081,
        "name": "FENGYUN 1C DEB",
        "group": "fengyun-1c-debris",
        "lat": -62.25754411424031,
        "lon": 19.76107304168491,
        "alt_km": 864.0268503874322,
        "timestamp": "2025-12-12T05:47:29.051518+00:00",
        "meta_object_name": "FENGYUN 1C DEB",
        "meta_object_id": "1999-025BGB",
        "meta_epoch": "2025-12-10T19:04:52.857408",
        "meta_mean_motion": 14.06297892,
        "meta_eccentricity": 0.00473375,
        "meta_inclination": 98.7706,
        "meta_ra_of_asc_node": 1.2911,
        "meta_arg_of_pericenter": 236.5461,
        "meta_mean_anomaly": 301.6086,
        "meta_ephemeris_type": 0,
        "meta_classification_type": "U",
        "meta_norad_cat_id": 31081,
        "meta_element_set_no": 999,
        "meta_rev_at_epoch": 96433,
        "meta_bstar": 0.00019267461,
        "meta_mean_motion_dot": 2.78e-06,
        "meta_mean_motion_ddot": 0,
        "tle_line1": "1 31081U 99025BGB 25344.79505622  .00000278  00000+0  19267-3 0  9996",
        "tle_line2": "2 31081  98.7706   1.2911 0047337 236.5461 301.6086 14.06297892964334"
      },
      "geometry": {
        "type": "Point",
        "coordinates": [
          19.76107304168491,
          -62.25754411424031
        ]
      }
    },
    {
      "type": "Feature",
      "properties": {
        "norad_id": 31083,
        "name": "FENGYUN 1C DEB",
        "group": "fengyun-1c-debris",
        "lat": -64.51829116882504,
        "lon": -94.95433408328633,
        "alt_km": 683.1930540046751,
        "timestamp": "2025-12-12T05:47:29.051529+00:00",
        "meta_object_name": "FENGYUN 1C DEB",
        "meta_object_id": "1999-025BGD",
        "meta_epoch": "2025-12-11T19:30:37.348128",
        "meta_mean_motion": 14.61994596,
        "meta_eccentricity": 0.00311472,
        "meta_inclination": 98.646,
        "meta_ra_of_asc_node": 103.2164,
        "meta_arg_of_pericenter": 308.3036,
        "meta_mean_anomaly": 204.5832,
        "meta_ephemeris_type": 0,
        "meta_classification_type": "U",
        "meta_norad_cat_id": 31083,
        "meta_element_set_no": 999,
        "meta_rev_at_epoch": 97696,
        "meta_bstar": 0.0038376256,
        "meta_mean_motion_dot": 0.0001937,
        "meta_mean_motion_ddot": 0,
        "tle_line1": "1 31083U 99025BGD 25345.81293227  .00019370  00000+0  38376-2 0  9991",
        "tle_line2": "2 31083  98.6460 103.2164 0031147 308.3036 204.5832 14.61994596976961"
      },
      "geometry": {
        "type": "Point",
        "coordinates": [
          -94.95433408328633,
          -64.51829116882504
        ]
      }
    },
    {
      "type": "Feature",
      "properties": {
        "norad_id": 31085,
        "name": "FENGYUN 1C DEB",
        "group": "fengyun-1c-debris",
        "lat": 65.8650609695332,
        "lon": 166.33468432146398,
        "alt_km": 742.0421754864192,
        "timestamp": "2025-12-12T05:47:29.051539+00:00",
        "meta_object_name": "FENGYUN 1C DEB",
        "meta_object_id": "1999-025BGF",
        "meta_epoch": "2025-12-11T01:40:26.003424",
        "meta_mean_motion": 14.30307706,
        "meta_eccentricity": 0.00873969,
        "meta_inclination": 98.9844,
        "meta_ra_of_asc_node": 185.8023,
        "meta_arg_of_pericenter": 22.9067,
        "meta_mean_anomaly": 134.7993,
        "meta_ephemeris_type": 0,
        "meta_classification_type": "U",
        "meta_norad_cat_id": 31085,
        "meta_element_set_no": 999,
        "meta_rev_at_epoch": 97692,
        "meta_bstar": 0.00014789144,
        "meta_mean_motion_dot": 3.53e-06,
        "meta_mean_motion_ddot": 0,
        "tle_line1": "1 31085U 99025BGF 25345.06974541  .00000353  00000+0  14789-3 0  9999",
        "tle_line2": "2 31085  98.9844 185.8023 0087396  22.9067 134.7993 14.30307706976927"
      },
      "geometry": {
        "type": "Point",
        "coordinates": [
          166.33468432146398,
          65.8650609695332
        ]
      }
    },
    {
      "type": "Feature",
      "properties": {
        "norad_id": 31087,
        "name": "FENGYUN 1C DEB",
        "group": "fengyun-1c-debris",
        "lat": 30.709805446540205,
        "lon": -168.48455018148562,
        "alt_km": 787.7302932455968,
        "timestamp": "2025-12-12T05:47:29.051549+00:00",
        "meta_object_name": "FENGYUN 1C DEB",
        "meta_object_id": "1999-025BGH",
        "meta_epoch": "2025-12-12T00:18:16.430688",
        "meta_mean_motion": 14.60299004,
        "meta_eccentricity": 0.01719133,
        "meta_inclination": 98.1023,
        "meta_ra_of_asc_node": 6.4378,
        "meta_arg_of_pericenter": 293.2204,
        "meta_mean_anomaly": 95.6588,
        "meta_ephemeris_type": 0,
        "meta_classification_type": "U",
        "meta_norad_cat_id": 31087,
        "meta_element_set_no": 999,
        "meta_rev_at_epoch": 98759,
        "meta_bstar": 0.0013294733,
        "meta_mean_motion_dot": 7.86e-05,
        "meta_mean_motion_ddot": 0,
        "tle_line1": "1 31087U 99025BGH 25346.01269017  .00007860  00000+0  13295-2 0  9992",
        "tle_line2": "2 31087  98.1023   6.4378 0171913 293.2204  95.6588 14.60299004987590"
      },
      "geometry": {
        "type": "Point",
        "coordinates": [
          -168.48455018148562,
          30.709805446540205
        ]
      }
    }
  ]
}